ORBCOMM FM24            
1 25478U 98053D   25004.39153365  .00002945  00000+0  10251-2 0  9997
2 25478  45.0087 325.3027 0000639  36.1591 323.9300 14.37315471373871
ORBCOMM FM25            
1 25479U 98053E   25004.36046558  .00003550  00000+0  12261-2 0  9996
2 25479  45.0079 323.7052 0002274 139.9008 220.2008 14.37305202374163
ORBCOMM FM26            
1 25480U 98053F   25004.33993988  .00002897  00000+0  10260-2 0  9993
2 25480  45.0073 319.1460 0004307 170.2097 189.8835 14.36481795374086
ORBCOMM FM27            
1 25481U 98053G   25004.35004337  .00003608  00000+0  12452-2 0  9993
2 25481  45.0061 324.0018 0001603 326.6806  33.3941 14.37308822374091
ORBCOMM FM28            
1 25482U 98053H   25004.06647045  .00002367  00000+0  82879-3 0  9993
2 25482  45.0043 263.1350 0003219 191.8300 168.2473 14.37583698374735
ORBCOMM FM30            
1 25980U 99065A   25004.55649626  .00002483  00000+0  88346-3 0  9995
2 25980  45.0300 143.8737 0007110 256.7055 103.3000 14.36627943310916
ORBCOMM FM31            
1 25981U 99065B   25004.52478409  .00002402  00000+0  85704-3 0  9998
2 25981  45.0214 137.5749 0004183 270.5512  89.4856 14.36596657310463
ORBCOMM FM32            
1 25982U 99065C   25004.53129920  .00002190  00000+0  80092-3 0  9990
2 25982  45.0136 153.0139 0005806 276.9854  83.0333 14.35628774311078
