<?xml version="1.0" encoding="UTF-8"?>
<ndm xmlns:xsi="http://www.w3.org/2001/XMLSchema-instance" xsi:noNamespaceSchemaLocation="https://sanaregistry.org/r/ndmxml_unqualified/ndmxml-2.0.0-master-2.0.xsd">
<omm id="CCSDS_OMM_VERS" version="2.0">
<header><CREATION_DATE/><ORIGINATOR/></header><body><segment><metadata><OBJECT_NAME>ORBCOMM FM24</OBJECT_NAME><OBJECT_ID>1998-053D</OBJECT_ID><CENTER_NAME>EARTH</CENTER_NAME><REF_FRAME>TEME</REF_FRAME><TIME_SYSTEM>UTC</TIME_SYSTEM><MEAN_ELEMENT_THEORY>SGP4</MEAN_ELEMENT_THEORY></metadata><data><meanElements><EPOCH>2025-01-04T09:23:48.507360</EPOCH><MEAN_MOTION>14.37315471</MEAN_MOTION><ECCENTRICITY>.0000639</ECCENTRICITY><INCLINATION>45.0087</INCLINATION><RA_OF_ASC_NODE>325.3027</RA_OF_ASC_NODE><ARG_OF_PERICENTER>36.1591</ARG_OF_PERICENTER><MEAN_ANOMALY>323.9300</MEAN_ANOMALY></meanElements><tleParameters><EPHEMERIS_TYPE>0</EPHEMERIS_TYPE><CLASSIFICATION_TYPE>U</CLASSIFICATION_TYPE><NORAD_CAT_ID>25478</NORAD_CAT_ID><ELEMENT_SET_NO>999</ELEMENT_SET_NO><REV_AT_EPOCH>37387</REV_AT_EPOCH><BSTAR>.10251E-2</BSTAR><MEAN_MOTION_DOT>.2945E-4</MEAN_MOTION_DOT><MEAN_MOTION_DDOT>0</MEAN_MOTION_DDOT></tleParameters></data></segment></body></omm>
<omm id="CCSDS_OMM_VERS" version="2.0">
<header><CREATION_DATE/><ORIGINATOR/></header><body><segment><metadata><OBJECT_NAME>ORBCOMM FM25</OBJECT_NAME><OBJECT_ID>1998-053E</OBJECT_ID><CENTER_NAME>EARTH</CENTER_NAME><REF_FRAME>TEME</REF_FRAME><TIME_SYSTEM>UTC</TIME_SYSTEM><MEAN_ELEMENT_THEORY>SGP4</MEAN_ELEMENT_THEORY></metadata><data><meanElements><EPOCH>2025-01-04T08:39:04.226112</EPOCH><MEAN_MOTION>14.37305202</MEAN_MOTION><ECCENTRICITY>.0002274</ECCENTRICITY><INCLINATION>45.0079</INCLINATION><RA_OF_ASC_NODE>323.7052</RA_OF_ASC_NODE><ARG_OF_PERICENTER>139.9008</ARG_OF_PERICENTER><MEAN_ANOMALY>220.2008</MEAN_ANOMALY></meanElements><tleParameters><EPHEMERIS_TYPE>0</EPHEMERIS_TYPE><CLASSIFICATION_TYPE>U</CLASSIFICATION_TYPE><NORAD_CAT_ID>25479</NORAD_CAT_ID><ELEMENT_SET_NO>999</ELEMENT_SET_NO><REV_AT_EPOCH>37416</REV_AT_EPOCH><BSTAR>.12261E-2</BSTAR><MEAN_MOTION_DOT>.355E-4</MEAN_MOTION_DOT><MEAN_MOTION_DDOT>0</MEAN_MOTION_DDOT></tleParameters></data></segment></body></omm>
<omm id="CCSDS_OMM_VERS" version="2.0">
<header><CREATION_DATE/><ORIGINATOR/></header><body><segment><metadata><OBJECT_NAME>ORBCOMM FM26</OBJECT_NAME><OBJECT_ID>1998-053F</OBJECT_ID><CENTER_NAME>EARTH</CENTER_NAME><REF_FRAME>TEME</REF_FRAME><TIME_SYSTEM>UTC</TIME_SYSTEM><MEAN_ELEMENT_THEORY>SGP4</MEAN_ELEMENT_THEORY></metadata><data><meanElements><EPOCH>2025-01-04T08:09:30.805632</EPOCH><MEAN_MOTION>14.36481795</MEAN_MOTION><ECCENTRICITY>.0004307</ECCENTRICITY><INCLINATION>45.0073</INCLINATION><RA_OF_ASC_NODE>319.1460</RA_OF_ASC_NODE><ARG_OF_PERICENTER>170.2097</ARG_OF_PERICENTER><MEAN_ANOMALY>189.8835</MEAN_ANOMALY></meanElements><tleParameters><EPHEMERIS_TYPE>0</EPHEMERIS_TYPE><CLASSIFICATION_TYPE>U</CLASSIFICATION_TYPE><NORAD_CAT_ID>25480</NORAD_CAT_ID><ELEMENT_SET_NO>999</ELEMENT_SET_NO><REV_AT_EPOCH>37408</REV_AT_EPOCH><BSTAR>.1026E-2</BSTAR><MEAN_MOTION_DOT>.2897E-4</MEAN_MOTION_DOT><MEAN_MOTION_DDOT>0</MEAN_MOTION_DDOT></tleParameters></data></segment></body></omm>
<omm id="CCSDS_OMM_VERS" version="2.0">
<header><CREATION_DATE/><ORIGINATOR/></header><body><segment><metadata><OBJECT_NAME>ORBCOMM FM27</OBJECT_NAME><OBJECT_ID>1998-053G</OBJECT_ID><CENTER_NAME>EARTH</CENTER_NAME><REF_FRAME>TEME</REF_FRAME><TIME_SYSTEM>UTC</TIME_SYSTEM><MEAN_ELEMENT_THEORY>SGP4</MEAN_ELEMENT_THEORY></metadata><data><meanElements><EPOCH>2025-01-04T08:24:03.747168</EPOCH><MEAN_MOTION>14.37308822</MEAN_MOTION><ECCENTRICITY>.0001603</ECCENTRICITY><INCLINATION>45.0061</INCLINATION><RA_OF_ASC_NODE>324.0018</RA_OF_ASC_NODE><ARG_OF_PERICENTER>326.6806</ARG_OF_PERICENTER><MEAN_ANOMALY>33.3941</MEAN_ANOMALY></meanElements><tleParameters><EPHEMERIS_TYPE>0</EPHEMERIS_TYPE><CLASSIFICATION_TYPE>U</CLASSIFICATION_TYPE><NORAD_CAT_ID>25481</NORAD_CAT_ID><ELEMENT_SET_NO>999</ELEMENT_SET_NO><REV_AT_EPOCH>37409</REV_AT_EPOCH><BSTAR>.12452E-2</BSTAR><MEAN_MOTION_DOT>.3608E-4</MEAN_MOTION_DOT><MEAN_MOTION_DDOT>0</MEAN_MOTION_DDOT></tleParameters></data></segment></body></omm>
<omm id="CCSDS_OMM_VERS" version="2.0">
<header><CREATION_DATE/><ORIGINATOR/></header><body><segment><metadata><OBJECT_NAME>ORBCOMM FM28</OBJECT_NAME><OBJECT_ID>1998-053H</OBJECT_ID><CENTER_NAME>EARTH</CENTER_NAME><REF_FRAME>TEME</REF_FRAME><TIME_SYSTEM>UTC</TIME_SYSTEM><MEAN_ELEMENT_THEORY>SGP4</MEAN_ELEMENT_THEORY></metadata><data><meanElements><EPOCH>2025-01-04T01:35:43.046880</EPOCH><MEAN_MOTION>14.37583698</MEAN_MOTION><ECCENTRICITY>.0003219</ECCENTRICITY><INCLINATION>45.0043</INCLINATION><RA_OF_ASC_NODE>263.1350</RA_OF_ASC_NODE><ARG_OF_PERICENTER>191.8300</ARG_OF_PERICENTER><MEAN_ANOMALY>168.2473</MEAN_ANOMALY></meanElements><tleParameters><EPHEMERIS_TYPE>0</EPHEMERIS_TYPE><CLASSIFICATION_TYPE>U</CLASSIFICATION_TYPE><NORAD_CAT_ID>25482</NORAD_CAT_ID><ELEMENT_SET_NO>999</ELEMENT_SET_NO><REV_AT_EPOCH>37473</REV_AT_EPOCH><BSTAR>.82879E-3</BSTAR><MEAN_MOTION_DOT>.2367E-4</MEAN_MOTION_DOT><MEAN_MOTION_DDOT>0</MEAN_MOTION_DDOT></tleParameters></data></segment></body></omm>
<omm id="CCSDS_OMM_VERS" version="2.0">
<header><CREATION_DATE/><ORIGINATOR/></header><body><segment><metadata><OBJECT_NAME>ORBCOMM FM30</OBJECT_NAME><OBJECT_ID>1999-065A</OBJECT_ID><CENTER_NAME>EARTH</CENTER_NAME><REF_FRAME>TEME</REF_FRAME><TIME_SYSTEM>UTC</TIME_SYSTEM><MEAN_ELEMENT_THEORY>SGP4</MEAN_ELEMENT_THEORY></metadata><data><meanElements><EPOCH>2025-01-04T13:21:21.276864</EPOCH><MEAN_MOTION>14.36627943</MEAN_MOTION><ECCENTRICITY>.000711</ECCENTRICITY><INCLINATION>45.0300</INCLINATION><RA_OF_ASC_NODE>143.8737</RA_OF_ASC_NODE><ARG_OF_PERICENTER>256.7055</ARG_OF_PERICENTER><MEAN_ANOMALY>103.3000</MEAN_ANOMALY></meanElements><tleParameters><EPHEMERIS_TYPE>0</EPHEMERIS_TYPE><CLASSIFICATION_TYPE>U</CLASSIFICATION_TYPE><NORAD_CAT_ID>25980</NORAD_CAT_ID><ELEMENT_SET_NO>999</ELEMENT_SET_NO><REV_AT_EPOCH>31091</REV_AT_EPOCH><BSTAR>.88346E-3</BSTAR><MEAN_MOTION_DOT>.2483E-4</MEAN_MOTION_DOT><MEAN_MOTION_DDOT>0</MEAN_MOTION_DDOT></tleParameters></data></segment></body></omm>
<omm id="CCSDS_OMM_VERS" version="2.0">
<header><CREATION_DATE/><ORIGINATOR/></header><body><segment><metadata><OBJECT_NAME>ORBCOMM FM31</OBJECT_NAME><OBJECT_ID>1999-065B</OBJECT_ID><CENTER_NAME>EARTH</CENTER_NAME><REF_FRAME>TEME</REF_FRAME><TIME_SYSTEM>UTC</TIME_SYSTEM><MEAN_ELEMENT_THEORY>SGP4</MEAN_ELEMENT_THEORY></metadata><data><meanElements><EPOCH>2025-01-04T12:35:41.345376</EPOCH><MEAN_MOTION>14.36596657</MEAN_MOTION><ECCENTRICITY>.0004183</ECCENTRICITY><INCLINATION>45.0214</INCLINATION><RA_OF_ASC_NODE>137.5749</RA_OF_ASC_NODE><ARG_OF_PERICENTER>270.5512</ARG_OF_PERICENTER><MEAN_ANOMALY>89.4856</MEAN_ANOMALY></meanElements><tleParameters><EPHEMERIS_TYPE>0</EPHEMERIS_TYPE><CLASSIFICATION_TYPE>U</CLASSIFICATION_TYPE><NORAD_CAT_ID>25981</NORAD_CAT_ID><ELEMENT_SET_NO>999</ELEMENT_SET_NO><REV_AT_EPOCH>31046</REV_AT_EPOCH><BSTAR>.85704E-3</BSTAR><MEAN_MOTION_DOT>.2402E-4</MEAN_MOTION_DOT><MEAN_MOTION_DDOT>0</MEAN_MOTION_DDOT></tleParameters></data></segment></body></omm>
<omm id="CCSDS_OMM_VERS" version="2.0">
<header><CREATION_DATE/><ORIGINATOR/></header><body><segment><metadata><OBJECT_NAME>ORBCOMM FM32</OBJECT_NAME><OBJECT_ID>1999-065C</OBJECT_ID><CENTER_NAME>EARTH</CENTER_NAME><REF_FRAME>TEME</REF_FRAME><TIME_SYSTEM>UTC</TIME_SYSTEM><MEAN_ELEMENT_THEORY>SGP4</MEAN_ELEMENT_THEORY></metadata><data><meanElements><EPOCH>2025-01-04T12:45:04.250880</EPOCH><MEAN_MOTION>14.35628774</MEAN_MOTION><ECCENTRICITY>.0005806</ECCENTRICITY><INCLINATION>45.0136</INCLINATION><RA_OF_ASC_NODE>153.0139</RA_OF_ASC_NODE><ARG_OF_PERICENTER>276.9854</ARG_OF_PERICENTER><MEAN_ANOMALY>83.0333</MEAN_ANOMALY></meanElements><tleParameters><EPHEMERIS_TYPE>0</EPHEMERIS_TYPE><CLASSIFICATION_TYPE>U</CLASSIFICATION_TYPE><NORAD_CAT_ID>25982</NORAD_CAT_ID><ELEMENT_SET_NO>999</ELEMENT_SET_NO><REV_AT_EPOCH>31107</REV_AT_EPOCH><BSTAR>.80092E-3</BSTAR><MEAN_MOTION_DOT>.219E-4</MEAN_MOTION_DOT><MEAN_MOTION_DDOT>0</MEAN_MOTION_DDOT></tleParameters></data></segment></body></omm>

</ndm>
